KUIPER-00089            
1 64834U 25151U   25236.31806180  .00025034  00000+0  71274-3 0  9991
2 64834  51.8771  99.3531 0005775 295.9514  64.0877 15.35946592  5999
KUIPER-00090            
1 64835U 25151V   25236.32393531  .00021740  00000+0  62570-3 0  9993
2 64835  51.8788  99.3873 0005637 300.4177  59.6252 15.35692566  5997
KUIPER-00091            
1 64836U 25151W   25236.63301527  .00032021  00000+0  90077-3 0  9999
2 64836  51.8781  97.7099 0005823 277.8084  82.2241 15.36188479  6045
KUIPER-00092            
1 64837U 25151X   25236.58337963  .00048753  00000+0  13632-2 0  9997
2 64837  51.8770  97.9843 0005746 281.9088 144.8891 15.36181229  3215
KUIPER-00093            
1 64838U 25151Y   25236.64240257  .00038165  00000+0  10779-2 0  9999
2 64838  51.8784  97.7788 0004295 292.2166  67.8364 15.35984590  6041
KUIPER-00094            
1 64839U 25151Z   25235.92059456  .00035573  00000+0  99894-3 0  9995
2 64839  51.8774 101.1833 0005448 284.1090  75.9290 15.36193376  5939
KUIPER-00081            
1 65132U 25171A   25236.60050239  .00017615  00000+0  50803-3 0  9994
2 65132  51.8785 341.5984 0005629 165.8779 194.2366 15.35772413  3262
KUIPER-00088            
1 65133U 25171B   25236.60109651  .00015230  00000+0  44176-3 0  9995
2 65133  51.8785 341.6050 0005431 167.3294 192.7830 15.35710715  3264
