<?xml version="1.0" encoding="UTF-8"?>
<ndm xmlns:xsi="http://www.w3.org/2001/XMLSchema-instance" xsi:noNamespaceSchemaLocation="https://sanaregistry.org/r/ndmxml_unqualified/ndmxml-2.0.0-master-2.0.xsd">
<omm id="CCSDS_OMM_VERS" version="2.0">
<header><CREATION_DATE/><ORIGINATOR/></header><body><segment><metadata><OBJECT_NAME>KUIPER-00089</OBJECT_NAME><OBJECT_ID>2025-151U</OBJECT_ID><CENTER_NAME>EARTH</CENTER_NAME><REF_FRAME>TEME</REF_FRAME><TIME_SYSTEM>UTC</TIME_SYSTEM><MEAN_ELEMENT_THEORY>SGP4</MEAN_ELEMENT_THEORY></metadata><data><meanElements><EPOCH>2025-08-24T07:38:00.539520</EPOCH><MEAN_MOTION>15.35946592</MEAN_MOTION><ECCENTRICITY>.00057754</ECCENTRICITY><INCLINATION>51.8771</INCLINATION><RA_OF_ASC_NODE>99.3531</RA_OF_ASC_NODE><ARG_OF_PERICENTER>295.9514</ARG_OF_PERICENTER><MEAN_ANOMALY>64.0877</MEAN_ANOMALY></meanElements><tleParameters><EPHEMERIS_TYPE>0</EPHEMERIS_TYPE><CLASSIFICATION_TYPE>U</CLASSIFICATION_TYPE><NORAD_CAT_ID>64834</NORAD_CAT_ID><ELEMENT_SET_NO>999</ELEMENT_SET_NO><REV_AT_EPOCH>599</REV_AT_EPOCH><BSTAR>.71273876E-3</BSTAR><MEAN_MOTION_DOT>.25034E-3</MEAN_MOTION_DOT><MEAN_MOTION_DDOT>0</MEAN_MOTION_DDOT></tleParameters></data></segment></body></omm>
<omm id="CCSDS_OMM_VERS" version="2.0">
<header><CREATION_DATE/><ORIGINATOR/></header><body><segment><metadata><OBJECT_NAME>KUIPER-00090</OBJECT_NAME><OBJECT_ID>2025-151V</OBJECT_ID><CENTER_NAME>EARTH</CENTER_NAME><REF_FRAME>TEME</REF_FRAME><TIME_SYSTEM>UTC</TIME_SYSTEM><MEAN_ELEMENT_THEORY>SGP4</MEAN_ELEMENT_THEORY></metadata><data><meanElements><EPOCH>2025-08-24T07:46:28.010784</EPOCH><MEAN_MOTION>15.35692566</MEAN_MOTION><ECCENTRICITY>.00056375</ECCENTRICITY><INCLINATION>51.8788</INCLINATION><RA_OF_ASC_NODE>99.3873</RA_OF_ASC_NODE><ARG_OF_PERICENTER>300.4177</ARG_OF_PERICENTER><MEAN_ANOMALY>59.6252</MEAN_ANOMALY></meanElements><tleParameters><EPHEMERIS_TYPE>0</EPHEMERIS_TYPE><CLASSIFICATION_TYPE>U</CLASSIFICATION_TYPE><NORAD_CAT_ID>64835</NORAD_CAT_ID><ELEMENT_SET_NO>999</ELEMENT_SET_NO><REV_AT_EPOCH>599</REV_AT_EPOCH><BSTAR>.62569573E-3</BSTAR><MEAN_MOTION_DOT>.2174E-3</MEAN_MOTION_DOT><MEAN_MOTION_DDOT>0</MEAN_MOTION_DDOT></tleParameters></data></segment></body></omm>
<omm id="CCSDS_OMM_VERS" version="2.0">
<header><CREATION_DATE/><ORIGINATOR/></header><body><segment><metadata><OBJECT_NAME>KUIPER-00091</OBJECT_NAME><OBJECT_ID>2025-151W</OBJECT_ID><CENTER_NAME>EARTH</CENTER_NAME><REF_FRAME>TEME</REF_FRAME><TIME_SYSTEM>UTC</TIME_SYSTEM><MEAN_ELEMENT_THEORY>SGP4</MEAN_ELEMENT_THEORY></metadata><data><meanElements><EPOCH>2025-08-24T15:11:32.519328</EPOCH><MEAN_MOTION>15.36188479</MEAN_MOTION><ECCENTRICITY>.00058237</ECCENTRICITY><INCLINATION>51.8781</INCLINATION><RA_OF_ASC_NODE>97.7099</RA_OF_ASC_NODE><ARG_OF_PERICENTER>277.8084</ARG_OF_PERICENTER><MEAN_ANOMALY>82.2241</MEAN_ANOMALY></meanElements><tleParameters><EPHEMERIS_TYPE>0</EPHEMERIS_TYPE><CLASSIFICATION_TYPE>U</CLASSIFICATION_TYPE><NORAD_CAT_ID>64836</NORAD_CAT_ID><ELEMENT_SET_NO>999</ELEMENT_SET_NO><REV_AT_EPOCH>604</REV_AT_EPOCH><BSTAR>.90076541E-3</BSTAR><MEAN_MOTION_DOT>.32021E-3</MEAN_MOTION_DOT><MEAN_MOTION_DDOT>0</MEAN_MOTION_DDOT></tleParameters></data></segment></body></omm>
<omm id="CCSDS_OMM_VERS" version="2.0">
<header><CREATION_DATE/><ORIGINATOR/></header><body><segment><metadata><OBJECT_NAME>KUIPER-00092</OBJECT_NAME><OBJECT_ID>2025-151X</OBJECT_ID><CENTER_NAME>EARTH</CENTER_NAME><REF_FRAME>TEME</REF_FRAME><TIME_SYSTEM>UTC</TIME_SYSTEM><MEAN_ELEMENT_THEORY>SGP4</MEAN_ELEMENT_THEORY></metadata><data><meanElements><EPOCH>2025-08-24T14:00:04.000032</EPOCH><MEAN_MOTION>15.36181229</MEAN_MOTION><ECCENTRICITY>.00057467</ECCENTRICITY><INCLINATION>51.8770</INCLINATION><RA_OF_ASC_NODE>97.9843</RA_OF_ASC_NODE><ARG_OF_PERICENTER>281.9088</ARG_OF_PERICENTER><MEAN_ANOMALY>144.8891</MEAN_ANOMALY></meanElements><tleParameters><EPHEMERIS_TYPE>0</EPHEMERIS_TYPE><CLASSIFICATION_TYPE>U</CLASSIFICATION_TYPE><NORAD_CAT_ID>64837</NORAD_CAT_ID><ELEMENT_SET_NO>999</ELEMENT_SET_NO><REV_AT_EPOCH>321</REV_AT_EPOCH><BSTAR>.13631625E-2</BSTAR><MEAN_MOTION_DOT>.48753E-3</MEAN_MOTION_DOT><MEAN_MOTION_DDOT>0</MEAN_MOTION_DDOT></tleParameters></data></segment></body></omm>
<omm id="CCSDS_OMM_VERS" version="2.0">
<header><CREATION_DATE/><ORIGINATOR/></header><body><segment><metadata><OBJECT_NAME>KUIPER-00093</OBJECT_NAME><OBJECT_ID>2025-151Y</OBJECT_ID><CENTER_NAME>EARTH</CENTER_NAME><REF_FRAME>TEME</REF_FRAME><TIME_SYSTEM>UTC</TIME_SYSTEM><MEAN_ELEMENT_THEORY>SGP4</MEAN_ELEMENT_THEORY></metadata><data><meanElements><EPOCH>2025-08-24T15:25:03.582048</EPOCH><MEAN_MOTION>15.35984590</MEAN_MOTION><ECCENTRICITY>.00042957</ECCENTRICITY><INCLINATION>51.8784</INCLINATION><RA_OF_ASC_NODE>97.7788</RA_OF_ASC_NODE><ARG_OF_PERICENTER>292.2166</ARG_OF_PERICENTER><MEAN_ANOMALY>67.8364</MEAN_ANOMALY></meanElements><tleParameters><EPHEMERIS_TYPE>0</EPHEMERIS_TYPE><CLASSIFICATION_TYPE>U</CLASSIFICATION_TYPE><NORAD_CAT_ID>64838</NORAD_CAT_ID><ELEMENT_SET_NO>999</ELEMENT_SET_NO><REV_AT_EPOCH>604</REV_AT_EPOCH><BSTAR>.1077937E-2</BSTAR><MEAN_MOTION_DOT>.38165E-3</MEAN_MOTION_DOT><MEAN_MOTION_DDOT>0</MEAN_MOTION_DDOT></tleParameters></data></segment></body></omm>
<omm id="CCSDS_OMM_VERS" version="2.0">
<header><CREATION_DATE/><ORIGINATOR/></header><body><segment><metadata><OBJECT_NAME>KUIPER-00094</OBJECT_NAME><OBJECT_ID>2025-151Z</OBJECT_ID><CENTER_NAME>EARTH</CENTER_NAME><REF_FRAME>TEME</REF_FRAME><TIME_SYSTEM>UTC</TIME_SYSTEM><MEAN_ELEMENT_THEORY>SGP4</MEAN_ELEMENT_THEORY></metadata><data><meanElements><EPOCH>2025-08-23T22:05:39.369984</EPOCH><MEAN_MOTION>15.36193376</MEAN_MOTION><ECCENTRICITY>.00054481</ECCENTRICITY><INCLINATION>51.8774</INCLINATION><RA_OF_ASC_NODE>101.1833</RA_OF_ASC_NODE><ARG_OF_PERICENTER>284.1090</ARG_OF_PERICENTER><MEAN_ANOMALY>75.9290</MEAN_ANOMALY></meanElements><tleParameters><EPHEMERIS_TYPE>0</EPHEMERIS_TYPE><CLASSIFICATION_TYPE>U</CLASSIFICATION_TYPE><NORAD_CAT_ID>64839</NORAD_CAT_ID><ELEMENT_SET_NO>999</ELEMENT_SET_NO><REV_AT_EPOCH>593</REV_AT_EPOCH><BSTAR>.99894228E-3</BSTAR><MEAN_MOTION_DOT>.35573E-3</MEAN_MOTION_DOT><MEAN_MOTION_DDOT>0</MEAN_MOTION_DDOT></tleParameters></data></segment></body></omm>
<omm id="CCSDS_OMM_VERS" version="2.0">
<header><CREATION_DATE/><ORIGINATOR/></header><body><segment><metadata><OBJECT_NAME>KUIPER-00081</OBJECT_NAME><OBJECT_ID>2025-171A</OBJECT_ID><CENTER_NAME>EARTH</CENTER_NAME><REF_FRAME>TEME</REF_FRAME><TIME_SYSTEM>UTC</TIME_SYSTEM><MEAN_ELEMENT_THEORY>SGP4</MEAN_ELEMENT_THEORY></metadata><data><meanElements><EPOCH>2025-08-24T14:24:43.406496</EPOCH><MEAN_MOTION>15.35772413</MEAN_MOTION><ECCENTRICITY>.0005629</ECCENTRICITY><INCLINATION>51.8785</INCLINATION><RA_OF_ASC_NODE>341.5984</RA_OF_ASC_NODE><ARG_OF_PERICENTER>165.8779</ARG_OF_PERICENTER><MEAN_ANOMALY>194.2366</MEAN_ANOMALY></meanElements><tleParameters><EPHEMERIS_TYPE>0</EPHEMERIS_TYPE><CLASSIFICATION_TYPE>U</CLASSIFICATION_TYPE><NORAD_CAT_ID>65132</NORAD_CAT_ID><ELEMENT_SET_NO>999</ELEMENT_SET_NO><REV_AT_EPOCH>326</REV_AT_EPOCH><BSTAR>.50803338E-3</BSTAR><MEAN_MOTION_DOT>.17615E-3</MEAN_MOTION_DOT><MEAN_MOTION_DDOT>0</MEAN_MOTION_DDOT></tleParameters></data></segment></body></omm>
<omm id="CCSDS_OMM_VERS" version="2.0">
<header><CREATION_DATE/><ORIGINATOR/></header><body><segment><metadata><OBJECT_NAME>KUIPER-00088</OBJECT_NAME><OBJECT_ID>2025-171B</OBJECT_ID><CENTER_NAME>EARTH</CENTER_NAME><REF_FRAME>TEME</REF_FRAME><TIME_SYSTEM>UTC</TIME_SYSTEM><MEAN_ELEMENT_THEORY>SGP4</MEAN_ELEMENT_THEORY></metadata><data><meanElements><EPOCH>2025-08-24T14:25:34.738464</EPOCH><MEAN_MOTION>15.35710715</MEAN_MOTION><ECCENTRICITY>.00054316</ECCENTRICITY><INCLINATION>51.8785</INCLINATION><RA_OF_ASC_NODE>341.6050</RA_OF_ASC_NODE><ARG_OF_PERICENTER>167.3294</ARG_OF_PERICENTER><MEAN_ANOMALY>192.7830</MEAN_ANOMALY></meanElements><tleParameters><EPHEMERIS_TYPE>0</EPHEMERIS_TYPE><CLASSIFICATION_TYPE>U</CLASSIFICATION_TYPE><NORAD_CAT_ID>65133</NORAD_CAT_ID><ELEMENT_SET_NO>999</ELEMENT_SET_NO><REV_AT_EPOCH>326</REV_AT_EPOCH><BSTAR>.44175842E-3</BSTAR><MEAN_MOTION_DOT>.1523E-3</MEAN_MOTION_DOT><MEAN_MOTION_DDOT>0</MEAN_MOTION_DDOT></tleParameters></data></segment></body></omm>

</ndm>
